[
    {
        "CCSDS_OMM_VERS": "3.0",
        "COMMENT": "GENERATED VIA SPACE-TRACK.ORG API",
        "CREATION_DATE": "2025-05-03T17:28:03",
        "ORIGINATOR": "18 SPCS",
        "OBJECT_NAME": "BD-19",
        "OBJECT_ID": "2015-037B",
        "CENTER_NAME": "EARTH",
        "REF_FRAME": "TEME",
        "TIME_SYSTEM": "UTC",
        "MEAN_ELEMENT_THEORY": "SGP4",
        "EPOCH": "2025-05-02T19:29:54.454848",
        "MEAN_MOTION": "1.86253796",
        "ECCENTRICITY": "0.00039970",
        "INCLINATION": "55.2257",
        "RA_OF_ASC_NODE": "316.1275",
        "ARG_OF_PERICENTER": "23.9349",
        "MEAN_ANOMALY": "336.0866",
        "EPHEMERIS_TYPE": "0",
        "CLASSIFICATION_TYPE": "U",
        "NORAD_CAT_ID": "40749",
        "ELEMENT_SET_NO": "999",
        "REV_AT_EPOCH": "6648",
        "BSTAR": "0.00000000000000",
        "MEAN_MOTION_DOT": "-0.00000067",
        "MEAN_MOTION_DDOT": "0.0000000000000",
        "SEMIMAJOR_AXIS": "27903.912",
        "PERIOD": "773.139",
        "APOAPSIS": "21536.930",
        "PERIAPSIS": "21514.623",
        "OBJECT_TYPE": "PAYLOAD",
        "RCS_SIZE": "LARGE",
        "COUNTRY_CODE": "PRC",
        "LAUNCH_DATE": "2015-07-25",
        "SITE": "XSC",
        "DECAY_DATE": null,
        "FILE": "4717971",
        "GP_ID": "286760669",
        "TLE_LINE0": "0 BD-19",
        "TLE_LINE1": "1 40749U 15037B   25122.81243582 -.00000067  00000-0  00000-0 0  9999",
        "TLE_LINE2": "2 40749  55.2257 316.1275 0003997  23.9349 336.0866  1.86253796 66488"
    }
]